NORAD_CAT_ID,OBJECT_NAME,OBJECT_TYPE,EPOCH,MEAN_MOTION,ECCENTRICITY,INCLINATION,RA_OF_ASC_NODE,ARG_OF_PERICENTER,MEAN_ANOMALY,BSTAR,MEAN_MOTION_DOT,MEAN_MOTION_DDOT,TLE_LINE0,TLE_LINE1,TLE_LINE2,SEMIMAJOR_AXIS,PERIOD,APOGEE,PERIGEE,DECAYED
52307.0,STARLINK-3755,PAYLOAD,2022-05-15 22:00:00,15.73172825,0.0002713,53.2147,254.8635,19.2969,75.5384,0.0004084,0.00057025,0.0,0 STARLINK-3755,1 52307U 22041AY  22135.91667824  .00057025  00000-0  40840-3 0  9990,2 52307  53.2147 254.8635 0002713  19.2969  75.5384 15.73172825  5034,6727.973000000001,91.535,351.663,348.01199999999994,0.0
52307.0,STARLINK-3755,PAYLOAD,2022-05-16 12:00:00,15.73243675,0.0002671,53.2153,251.9767,22.3937,138.0407,-0.00083083,-0.00115874,0.0,0 STARLINK-3755,1 52307U 22041AY  22136.50001157 -.00115874  00000-0 -83083-3 0  9992,2 52307  53.2153 251.9767 0002671  22.3937 138.0407 15.73243675  5121,6727.771,91.531,351.43300000000005,347.839,0.0
52307.0,STARLINK-3755,PAYLOAD,2022-05-16 14:00:01,15.73218783,0.000274,53.2152,251.5649,21.6608,251.0173,-0.00074304,-0.00103734,0.0,0 STARLINK-3755,1 52307U 22041AY  22136.58334491 -.00103734  00000-0 -74304-3 0  9998,2 52307  53.2152 251.5649 0002740  21.6608 251.0173 15.73218783  1303,6727.842,91.532,351.55,347.86300000000006,0.0
52307.0,STARLINK-3755,PAYLOAD,2022-05-16 20:00:01,15.73165696,0.0002831,53.2151,250.3281,16.3155,233.0737,-0.00010783,-0.00015708,0.0,0 STARLINK-3755,1 52307U 22041AY  22136.83334491 -.00015708  00000-0 -10783-3 0  9990,2 52307  53.2151 250.3281 0002831  16.3155 233.0737 15.73165696  5180,6727.993,91.535,351.76300000000015,347.95300000000015,0.0
52307.0,STARLINK-3755,PAYLOAD,2022-05-16 22:00:00,15.73162553,0.0002781,53.2152,249.9152,15.3935,346.2161,-6.7402e-05,-0.00010057,0.0,0 STARLINK-3755,1 52307U 22041AY  22136.91667824 -.00010057  00000-0 -67402-4 0  9991,2 52307  53.2152 249.9152 0002781  15.3935 346.2161 15.73162553  1319,6728.002,91.535,351.73800000000006,347.996,0.0
52307.0,STARLINK-3755,PAYLOAD,2022-05-17 12:00:00,15.73210229,0.0002832,53.2151,247.0287,16.0132,51.1349,0.00017528,0.00024062,0.0,0 STARLINK-3755,1 52307U 22041AY  22137.50001157  .00024062  00000-0  17528-3 0  9990,2 52307  53.2151 247.0287 0002832  16.0132  51.1349 15.73210229  5284,6727.866,91.533,351.636,347.826,0.0
52307.0,STARLINK-3755,PAYLOAD,2022-05-17 14:00:01,15.7322269,0.0002908,53.2149,246.6167,15.7563,163.691,2.5364e-05,2.942e-05,0.0,0 STARLINK-3755,1 52307U 22041AY  22137.58335648  .00002942  00000-0  25364-4 0  9994,2 52307  53.2149 246.6167 0002908  15.7563 163.6910 15.73222690  1308,6727.83,91.532,351.652,347.73900000000015,0.0
52307.0,STARLINK-3755,PAYLOAD,2022-05-17 22:00:01,15.7327052,0.000293,53.2142,244.9666,14.0753,254.3469,-0.0007026,-0.00098405,0.0,0 STARLINK-3755,1 52307U 22041AY  22137.91668981 -.00098405  00000-0 -70260-3 0  9995,2 52307  53.2142 244.9666 0002930  14.0753 254.3469 15.73270520  1306,6727.694,91.529,351.53,347.588,0.0
52307.0,STARLINK-3755,PAYLOAD,2022-05-18 12:00:00,15.73219515,0.0002924,53.2145,242.0803,14.0882,319.9433,-0.00016832,-0.00024203,0.0,0 STARLINK-3755,1 52307U 22041AY  22138.50001157 -.00024203  00000-0 -16832-3 0  9997,2 52307  53.2145 242.0803 0002924  14.0882 319.9433 15.73219515  5442,6727.84,91.532,351.672,347.737,0.0
52307.0,STARLINK-3755,PAYLOAD,2022-05-18 14:00:01,15.73201162,0.0003007,53.2145,241.6685,12.9401,73.3329,6.381300000000001e-05,8.344e-05,0.0,0 STARLINK-3755,1 52307U 22041AY  22138.58334491  .00008344  00000-0  63813-4 0  9993,2 52307  53.2145 241.6685 0003007  12.9401  73.3329 15.73201162  1307,6727.892,91.533,351.78,347.7340000000001,0.0
52307.0,STARLINK-3755,PAYLOAD,2022-05-18 22:00:00,15.7325244,0.0003089,53.2143,240.0184,10.535,164.6789,-0.0008711999999999,-0.00121452,0.0,0 STARLINK-3755,1 52307U 22041AY  22138.91667824 -.00121452  00000-0 -87120-3 0  9993,2 52307  53.2143 240.0184 0003089  10.5350 164.6789 15.73252440  1308,6727.746,91.53,351.689,347.532,0.0
52307.0,STARLINK-3755,PAYLOAD,2022-05-19 14:00:01,15.73218118,0.0003301,53.214,236.72,13.3059,339.7958,-3.7675e-05,-5.913e-05,0.0,0 STARLINK-3755,1 52307U 22041AY  22139.58335648 -.00005913  00000-0 -37675-4 0  9997,2 52307  53.2140 236.7200 0003301  13.3059 339.7958 15.73218118  1307,6727.844,91.532,351.92900000000014,347.48800000000006,0.0
52307.0,STARLINK-3755,PAYLOAD,2022-05-19 22:00:00,15.73249487,0.0003217,53.2132,235.0696,8.8254,73.1733,-0.00055144,-0.00077493,0.0,0 STARLINK-3755,1 52307U 22041AY  22139.91667824 -.00077493  00000-0 -55144-3 0  9990,2 52307  53.2132 235.0696 0003217   8.8254  73.1733 15.73249487  5667,6727.754,91.53,351.783,347.455,0.0
52307.0,STARLINK-3755,PAYLOAD,2022-05-20 04:00:00,15.73158146,0.000302,53.2133,233.8311,6.9127,51.8157,0.00075756,0.00106884,0.0,0 STARLINK-3755,1 52307U 22041AY  22140.16667824  .00106884  00000-0  75756-3 0  9995,2 52307  53.2133 233.8311 0003020   6.9127  51.8157 15.73158146  5707,6728.015,91.536,351.911,347.848,0.0
52307.0,STARLINK-3755,PAYLOAD,2022-05-20 14:00:01,15.73194515,0.000337,53.2136,231.7715,5.7564,254.124,-4.7788e-05,-7.325e-05,0.0,0 STARLINK-3755,1 52307U 22041AY  22140.58334491 -.00007325  00000-0 -47788-4 0  9999,2 52307  53.2136 231.7715 0003370   5.7564 254.1240 15.73194515  5773,6727.911,91.533,352.043,347.509,0.0
52307.0,STARLINK-3755,PAYLOAD,2022-05-20 22:00:00,15.73205754,0.0003381,53.2136,230.1208,6.3320000000000025,342.4932,-0.00028482,-0.00040428,0.0,0 STARLINK-3755,1 52307U 22041AY  22140.91667824 -.00040428  00000-0 -28482-3 0  9995,2 52307  53.2136 230.1208 0003381   6.3320 342.4932 15.73205754  1304,6727.879,91.533,352.01800000000014,347.469,0.0
52307.0,STARLINK-3755,PAYLOAD,2022-05-21 06:00:00,15.73388136,0.0003321,53.2156,228.4696,11.7767,65.9415,-0.0039144,-0.00521772,0.0,0 STARLINK-3755,1 52307U 22041AY  22141.25001157 -.00521772  00000-0 -39144-2 0  9996,2 52307  53.2156 228.4696 0003321  11.7767  65.9415 15.73388136  1305,6727.359,91.522,351.458,346.99,0.0
52307.0,STARLINK-3755,PAYLOAD,2022-05-21 14:00:01,15.73216986,0.0003608,53.2137,226.8226,7.9204,158.8568,-1.022e-05,-2.060000000000001e-05,0.0,0 STARLINK-3755,1 52307U 22041AY  22141.58335648 -.00002060  00000-0 -10220-4 0  9997,2 52307  53.2137 226.8226 0003608   7.9204 158.8568 15.73216986  5922,6727.847,91.532,352.139,347.284,0.0
52307.0,STARLINK-3755,PAYLOAD,2022-05-21 22:00:00,15.73231738,0.0003501,53.2137,225.1717,5.263999999999999,250.4094,-0.00014136,-0.00020449,0.0,0 STARLINK-3755,1 52307U 22041AY  22141.91667824 -.00020449  00000-0 -14136-3 0  9998,2 52307  53.2137 225.1717 0003501   5.2640 250.4094 15.73231738  1309,6727.805,91.531,352.025,347.314,0.0
52307.0,STARLINK-3755,PAYLOAD,2022-05-22 14:00:01,15.73221401,0.0003722,53.2154,221.8738,7.0117,66.5701,-0.0006495,-0.00090923,0.0,0 STARLINK-3755,1 52307U 22041AY  22142.58334491 -.00090923  00000-0 -64950-3 0  9996,2 52307  53.2154 221.8738 0003722   7.0117  66.5701 15.73221401  1305,6727.834,91.532,352.20300000000015,347.195,0.0
52307.0,STARLINK-3755,PAYLOAD,2022-05-22 22:00:01,15.73158277,0.0003701,53.2154,220.2227,8.4477,154.148,0.00011972,0.00016186,0.0,0 STARLINK-3755,1 52307U 22041AY  22142.91668981  .00016186  00000-0  11972-3 0  9990,2 52307  53.2154 220.2227 0003701   8.4477 154.1480 15.73158277  6136,6728.014,91.536,352.369,347.389,0.0
52307.0,STARLINK-3755,PAYLOAD,2022-05-23 04:00:00,15.73124028,0.0003633,53.2155,218.9849,10.0749,129.0384,0.00067148,0.00094397,0.0,0 STARLINK-3755,1 52307U 22041AY  22143.16667824  .00094397  00000-0  67148-3 0  9999,2 52307  53.2155 218.9849 0003633  10.0749 129.0384 15.73124028  6171,6728.111999999999,91.538,352.421,347.532,0.0
52307.0,STARLINK-3755,PAYLOAD,2022-05-23 14:00:01,15.73119529,0.0003957,53.2155,216.9257,8.8698,331.3342,0.00043166,0.00060205,0.0,0 STARLINK-3755,1 52307U 22041AY  22143.58334491  .00060205  00000-0  43166-3 0  9991,2 52307  53.2155 216.9257 0003957   8.8698 331.3342 15.73119529  6249,6728.125,91.538,352.652,347.327,0.0
52307.0,STARLINK-3755,PAYLOAD,2022-05-23 22:00:01,15.73182108,0.00038,53.2151,215.2746,7.48,61.665,0.00037914,0.00052899,0.0,0 STARLINK-3755,1 52307U 22041AY  22143.91668981  .00052899  00000-0  37914-3 0  9996,2 52307  53.2151 215.2746 0003800   7.4800  61.6650 15.73182108  1307,6727.946,91.534,352.36800000000005,347.255,0.0
52307.0,STARLINK-3755,PAYLOAD,2022-05-24 12:57:17,15.73185721,0.0003583,53.2164,212.1908,12.2163,347.8944,1.3489e-05,1.269e-05,0.0,0 STARLINK-3755,1 52307U 22041AY  22144.53978636  .00001269  00000-0  13489-4 0  9993,2 52307  53.2164 212.1908 0003583  12.2163 347.8944 15.73185721  5180,6727.936,91.534,352.212,347.39,0.0
52307.0,STARLINK-3755,PAYLOAD,2022-05-24 14:00:01,15.73195029,0.0004026,53.2156,211.9773,4.7068,242.2277,0.00019365,0.00026645,0.0,0 STARLINK-3755,1 52307U 22041AY  22144.58334491  .00026645  00000-0  19365-3 0  9996,2 52307  53.2156 211.9773 0004026   4.7068 242.2277 15.73195029  6406,6727.909000000002,91.533,352.483,347.066,0.0
52307.0,STARLINK-3755,PAYLOAD,2022-05-24 22:00:00,15.73189576,0.0003911,53.2158,210.326,4.1005,331.7935,0.00020504,0.00028247,0.0,0 STARLINK-3755,1 52307U 22041AY  22144.91667824  .00028247  00000-0  20504-3 0  9999,2 52307  53.2158 210.3260 0003911   4.1005 331.7935 15.73189576  1308,6727.925,91.534,352.421,347.159,0.0
52307.0,STARLINK-3755,PAYLOAD,2022-05-25 06:00:00,15.73032122,0.0003937,53.2172,208.6754,10.2191,54.6033,0.0019368,0.00278442,0.0,0 STARLINK-3755,1 52307U 22041AY  22145.25001157  .00278442  00000-0  19368-2 0  9997,2 52307  53.2172 208.6754 0003937  10.2191  54.6033 15.73032122  6505,6728.374,91.543,352.88800000000015,347.59,0.0
52307.0,STARLINK-3755,PAYLOAD,2022-05-25 12:00:00,15.73253425,0.0004127,53.2158,207.4407,3.4199,38.1944,-0.00025673,-0.000366,0.0,0 STARLINK-3755,1 52307U 22041AY  22145.50001157 -.00036600  00000-0 -25673-3 0  9992,2 52307  53.2158 207.4407 0004127   3.4199  38.1944 15.73253425  6548,6727.743,91.53,352.384,346.831,0.0
